OBJECT_NAME,OBJECT_ID,EPOCH,MEAN_MOTION,ECCENTRICITY,INCLINATION,RA_OF_ASC_NODE,ARG_OF_PERICENTER,MEAN_ANOMALY,EPHEMERIS_TYPE,CLASSIFICATION_TYPE,NORAD_CAT_ID,ELEMENT_SET_NO,REV_AT_EPOCH,BSTAR,MEAN_MOTION_DOT,MEAN_MOTION_DDOT
SITRO-AIS 8 (ANOKHIN),2023-091AD,2026-07-10T20:31:33.091104,15.32782120,.0009982,97.5049,257.6731,23.6343,336.5355,0,U,57193,999,16807,.28468E-3,.8947E-4,0
SITRO-AIS 7 (FARTUSHNIY),2023-091AE,2026-07-10T20:34:21.300672,15.26061695,.0011594,97.5057,254.7927,32.5725,327.6226,0,U,57194,999,16788,.2414E-3,.6155E-4,0
AVION KALUGA 650,2023-091AF,2026-07-10T18:55:05.236320,15.20603741,.0010886,97.5081,251.2708,37.0184,323.1801,0,U,57195,999,16761,.17101E-3,.3683E-4,0
HORS 2,2023-091AG,2026-07-10T20:54:19.291968,15.32491396,.0007315,97.5083,259.2311,11.2483,348.8920,0,U,57196,999,16815,.26553E-3,.8257E-4,0
A-SEANSAT-PG1,2023-091AH,2026-07-10T20:00:18.510048,15.37784543,.0006126,97.5075,261.9310,6.5157,353.6166,0,U,57197,999,16834,.30881E-3,.11389E-3,0
SITRO-AIS 10 (BURDAEV),2023-091AK,2026-07-10T20:24:30.655584,15.39517793,.0005271,97.5075,262.9712,359.3920,0.7318,0,U,57199,999,16840,.32351E-3,.1263E-3,0
SITRO-AIS 9 (SHCHUKIN),2023-091AM,2026-07-10T19:39:58.360608,15.39004444,.0005537,97.5073,262.6507,359.9404,0.1839,0,U,57201,999,16838,.32567E-3,.12503E-3,0
UTMN 2 (RS27S),2023-091AP,2026-07-10T19:56:07.777248,15.32633836,.0007197,97.5081,259.3867,6.4517,353.6816,0,U,57203,999,16816,.25312E-3,.7902E-4,0
SITRO-AIS 12 (SMIRENNIY),2023-091AQ,2026-07-10T20:53:36.085056,15.39300684,.0005062,97.5087,263.1850,352.7532,7.3639,0,U,57204,999,16841,.33974E-3,.13174E-3,0
SITRO-AIS 11 (SHEFFER),2023-091AU,2026-07-10T21:03:20.129184,15.39742549,.0004958,97.5085,263.4538,352.3994,7.7175,0,U,57208,999,16843,.3348E-3,.13171E-3,0
H2SAT (HEINRICH HERTZ),2023-093A,2026-07-10T01:37:53.987808,1.00273286,.00007987,0.0175,102.3909,32.1109,178.6751,0,U,57213,999,1114,0,.14E-6,0
KUZGTU 1 (RS47S),2023-091AV,2026-07-10T20:07:03.326016,15.30406457,.0010544,97.5057,256.5656,21.6805,338.4880,0,U,57217,999,16799,.24375E-3,.71E-4,0
QIANKUN-1,2023-103B,2026-07-09T12:23:52.426464,16.07683835,.0036275,96.1478,233.7894,139.5319,220.8675,0,U,57422,999,17088,.17456964E-4,.14836E-3,.1743906E-5
FENGYUN 3F,2023-111A,2026-07-10T20:41:09.708288,14.19942955,.0001361,98.6827,261.4285,78.2527,281.8802,0,U,57490,999,15222,.21611E-4,.3E-7,0
HJ-2F,2023-116A,2026-07-10T20:20:13.265664,15.22656595,.0007027,97.3847,196.6587,331.0914,28.9932,0,U,57519,999,16235,.20648E-3,.4739E-4,0
XRISM,2023-137A,2026-07-10T10:03:51.414912,15.12649774,.00078158,31.0008,209.0912,198.8570,161.1780,0,U,57800,999,15638,.12992678E-3,.2427E-4,0
METEOR-M2 4,2024-039A,2026-07-10T21:19:41.615904,14.22431905,.0008227,98.7022,150.8903,99.4812,260.7296,0,U,59051,999,12263,.16936E-4,-.6E-7,0
GRBBETA,2024-128C,2026-07-09T07:40:21.012096,15.06782844,.00377691,61.9890,138.6053,139.4381,220.9537,0,U,60237,999,10960,.18353788E-3,.2568E-4,0
TRANSPORTER-11 OBJECT A,2024-149A,2026-07-08T18:11:30.220224,15.33269761,.00045867,97.3723,269.6246,132.7841,227.3788,0,U,60468,999,10536,.19585167E-3,.6218E-4,0
WARATAH SEED-1,2024-149B,2026-07-10T18:08:00.002112,15.36546367,.0003108,97.3688,272.3599,129.4804,230.6716,0,U,60469,999,10573,.26569E-3,.9398E-4,0
PHISAT 2,2024-149C,2026-07-09T04:49:25.105728,15.31364030,.00028906,97.3750,269.2980,133.4562,226.6921,0,U,60470,999,10536,.15877677E-3,.4732E-4,0
LEMUR-2-TOMATOKECHUP,2024-149D,2026-07-10T03:57:48.083904,15.36515487,.00030486,97.3795,273.2768,131.7960,228.3545,0,U,60471,999,10569,.23403615E-3,.8259E-4,0
CONNECTA IOT-1,2024-149E,2026-07-10T16:09:18.946080,15.23720794,.0002429,97.3754,267.5692,152.0524,208.0844,0,U,60472,999,10537,.1141E-3,.267E-4,0
LOPEN,2024-149F,2026-07-08T18:25:44.591808,15.40332623,.00024386,97.3769,273.3128,145.2182,214.9224,0,U,60473,999,10558,.29617568E-3,.11867E-3,0
ROCK,2024-149G,2026-07-08T18:06:34.333056,15.40321242,.0002736,97.3767,273.3139,144.4938,215.6491,0,U,60474,999,10558,.27595597E-3,.11046E-3,0
CONNECTA IOT-3,2024-149H,2026-07-10T04:03:17.686944,15.23731231,.00035052,97.3727,266.8195,155.4468,204.6937,0,U,60475,999,10530,.12236852E-3,.287E-4,0
QUBE,2024-149J,2026-07-09T11:29:28.964544,15.48313313,.00033359,97.3766,277.3580,141.9147,218.2340,0,U,60476,999,10591,.39887871E-3,.2101E-3,0
WREN-1,2024-149L,2026-07-10T04:06:39.533760,15.42489784,.00050595,97.3761,275.5386,166.2884,193.8501,0,U,60478,999,10586,.38700966E-3,.16702E-3,0
TOMORROW-S1,2024-149M,2026-07-10T04:18:57.849408,15.33047112,.00037268,97.3745,271.5833,142.2101,217.9404,0,U,60479,999,10561,.16838326E-3,.5297E-4,0
